COSMOS 2251 DEB         
1 35959U 93036AUZ 17345.43976931  .00000029  00000-0  20288-4 0  9999
2 35959  74.0333 253.2235 0023610 320.5061  39.4368 14.32529350430558
